ONEWEB-0210             
1 48787U 21045W   24286.51029021  .00000042  00000+0  78855-4 0  9990
2 48787  87.9123  21.1161 0002544 115.5535 244.5859 13.15551171163768
ONEWEB-0214             
1 48788U 21045X   24286.51978573 -.00000475  00000+0 -12970-2 0  9992
2 48788  87.9124  21.1026 0002234 116.6817 243.4542 13.15548547163738
ONEWEB-0221             
1 48789U 21045Y   24286.52612435 -.00000040  00000+0 -14127-3 0  9991
2 48789  87.9123  21.1225 0002012  98.6779 261.4579 13.15546187163827
ONEWEB-0213             
1 48790U 21045Z   24286.51503906  .00000018  00000+0  13861-4 0  9992
2 48790  87.9125  21.1369 0002205 103.1588 256.9788 13.15551480163883
ONEWEB-0212             
1 48791U 21045AA  24286.33994291 -.00000103  00000+0 -30655-3 0  9990
2 48791  87.9124  21.1568 0001805  98.7044 261.4291 13.15549783163855
ONEWEB-0227             
1 48792U 21045AB  24286.56732797  .00001435  00000+0  37763-2 0  9990
2 48792  87.9122  21.1262 0002185  98.0941 262.0438 13.15540929163837
ONEWEB-0226             
1 48793U 21045AC  24286.56099975  .00000142  00000+0  34400-3 0  9995
2 48793  87.9122  21.1331 0002298 109.4820 250.6558 13.15549410164924
ONEWEB-0224             
1 48794U 21045AD  24286.52453854 -.00000367  00000+0 -10098-2 0  9999
2 48794  87.9128  21.1660 0002520  79.0355 281.1059 13.15549584163723
